IRIDIUM 112             
1 41925U 17003J   25181.56997932  .00000099  00000+0  28389-4 0  9990
2 41925  86.3961 235.1758 0002335  95.8830 264.2632 14.34217867442876
IRIDIUM 111             
1 41926U 17003K   25181.55729375  .00000138  00000+0  42326-4 0  9995
2 41926  86.3963 235.2439 0002302  89.3865 270.7594 14.34217397442851
IRIDIUM 113             
1 42803U 17039A   25181.53725988  .00000038  00000+0  66225-5 0  9997
2 42803  86.3976 109.1814 0002450  86.6888 273.4588 14.34217717420782
IRIDIUM 123             
1 42804U 17039B   25181.43920122  .00000059  00000+0  13956-4 0  9999
2 42804  86.3991 140.6841 0002371  77.8953 282.2508 14.34217836419530
IRIDIUM 120             
1 42805U 17039C   25181.53091598  .00000033  00000+0  47479-5 0  9997
2 42805  86.3964 109.0121 0001989  77.5128 282.6290 14.34217772420775
IRIDIUM 115             
1 42806U 17039D   25181.54188743  .00000237  00000+0  64313-4 0  9999
2 42806  86.4501 109.0881 0002558  67.4617 292.6854 14.43279973423547
IRIDIUM 118             
1 42807U 17039E   25181.40113419  .00000103  00000+0  29709-4 0  9995
2 42807  86.3990 140.6994 0002456  87.5623 272.5854 14.34215447419528
IRIDIUM 117             
1 42808U 17039F   25181.42017357  .00000072  00000+0  18568-4 0  9998
2 42808  86.3988 140.6526 0002501  80.5470 279.6008 14.34218010419552
